{
  "type": "FeatureCollection",
  "features": [
    {
      "type": "Feature",
      "properties": {
        "norad_id": 58647,
        "name": "TIANMU-1 13",
        "group": "weather",
        "lat": -82.52794099879107,
        "lon": 103.03854030707707,
        "alt_km": 495.6993162136223,
        "timestamp": "2025-12-09T16:56:36.223530+00:00",
        "meta_object_name": "TIANMU-1 13",
        "meta_object_id": "2023-205C",
        "meta_epoch": "2025-12-09T12:37:00.765120",
        "meta_mean_motion": 15.24462048,
        "meta_eccentricity": 0.0006061,
        "meta_inclination": 97.3624,
        "meta_ra_of_asc_node": 3.2114,
        "meta_arg_of_pericenter": 282.0324,
        "meta_mean_anomaly": 78.0234,
        "meta_ephemeris_type": 0,
        "meta_classification_type": "U",
        "meta_norad_cat_id": 58647,
        "meta_element_set_no": 999,
        "meta_rev_at_epoch": 10858,
        "meta_bstar": 0.0003864,
        "meta_mean_motion_dot": 9.426e-05,
        "meta_mean_motion_ddot": 0,
        "tle_line1": "1 58647U 23205C   25343.52570330  .00009426  00000+0  38640-3 0  9998",
        "tle_line2": "2 58647  97.3624   3.2114 0006061 282.0324  78.0234 15.24462048108580"
      },
      "geometry": {
        "type": "Point",
        "coordinates": [
          103.03854030707707,
          -82.52794099879107
        ]
      }
    },
    {
      "type": "Feature",
      "properties": {
        "norad_id": 58648,
        "name": "TIANMU-1 14",
        "group": "weather",
        "lat": -0.059722994019306835,
        "lon": 2.747705718143355,
        "alt_km": 494.1990211662978,
        "timestamp": "2025-12-09T16:56:36.223541+00:00",
        "meta_object_name": "TIANMU-1 14",
        "meta_object_id": "2023-205D",
        "meta_epoch": "2025-12-09T12:13:03.366336",
        "meta_mean_motion": 15.24445428,
        "meta_eccentricity": 0.0006914,
        "meta_inclination": 97.3556,
        "meta_ra_of_asc_node": 2.5467,
        "meta_arg_of_pericenter": 287.19,
        "meta_mean_anomaly": 72.8581,
        "meta_ephemeris_type": 0,
        "meta_classification_type": "U",
        "meta_norad_cat_id": 58648,
        "meta_element_set_no": 999,
        "meta_rev_at_epoch": 10858,
        "meta_bstar": 0.0003682,
        "meta_mean_motion_dot": 8.975e-05,
        "meta_mean_motion_ddot": 0,
        "tle_line1": "1 58648U 23205D   25343.50906674  .00008975  00000+0  36820-3 0  9997",
        "tle_line2": "2 58648  97.3556   2.5467 0006914 287.1900  72.8581 15.24445428108581"
      },
      "geometry": {
        "type": "Point",
        "coordinates": [
          2.747705718143355,
          -0.059722994019306835
        ]
      }
    },
    {
      "type": "Feature",
      "properties": {
        "norad_id": 58660,
        "name": "TIANMU-1 19",
        "group": "weather",
        "lat": -38.26927142928614,
        "lon": -91.16693329052762,
        "alt_km": 487.161707808752,
        "timestamp": "2025-12-09T16:56:36.223552+00:00",
        "meta_object_name": "TIANMU-1 19",
        "meta_object_id": "2023-208A",
        "meta_epoch": "2025-12-09T11:16:24.448224",
        "meta_mean_motion": 15.27754669,
        "meta_eccentricity": 0.0004058,
        "meta_inclination": 97.439,
        "meta_ra_of_asc_node": 94.5137,
        "meta_arg_of_pericenter": 267.7594,
        "meta_mean_anomaly": 92.318,
        "meta_ephemeris_type": 0,
        "meta_classification_type": "U",
        "meta_norad_cat_id": 58660,
        "meta_element_set_no": 999,
        "meta_rev_at_epoch": 10832,
        "meta_bstar": 0.00049591,
        "meta_mean_motion_dot": 0.00013384,
        "meta_mean_motion_ddot": 0,
        "tle_line1": "1 58660U 23208A   25343.46972741  .00013384  00000+0  49591-3 0  9996",
        "tle_line2": "2 58660  97.4390  94.5137 0004058 267.7594  92.3180 15.27754669108324"
      },
      "geometry": {
        "type": "Point",
        "coordinates": [
          -91.16693329052762,
          -38.26927142928614
        ]
      }
    },
    {
      "type": "Feature",
      "properties": {
        "norad_id": 58661,
        "name": "TIANMU-1 20",
        "group": "weather",
        "lat": -77.70661431517978,
        "lon": 131.99849239390682,
        "alt_km": 481.96069961164903,
        "timestamp": "2025-12-09T16:56:36.223566+00:00",
        "meta_object_name": "TIANMU-1 20",
        "meta_object_id": "2023-208B",
        "meta_epoch": "2025-12-09T12:34:52.442976",
        "meta_mean_motion": 15.28947595,
        "meta_eccentricity": 0.0006321,
        "meta_inclination": 97.4327,
        "meta_ra_of_asc_node": 95.0125,
        "meta_arg_of_pericenter": 279.4726,
        "meta_mean_anomaly": 80.58,
        "meta_ephemeris_type": 0,
        "meta_classification_type": "U",
        "meta_norad_cat_id": 58661,
        "meta_element_set_no": 999,
        "meta_rev_at_epoch": 10840,
        "meta_bstar": 0.00048497,
        "meta_mean_motion_dot": 0.00013578,
        "meta_mean_motion_ddot": 0,
        "tle_line1": "1 58661U 23208B   25343.52421809  .00013578  00000+0  48497-3 0  9997",
        "tle_line2": "2 58661  97.4327  95.0125 0006321 279.4726  80.5800 15.28947595108400"
      },
      "geometry": {
        "type": "Point",
        "coordinates": [
          131.99849239390682,
          -77.70661431517978
        ]
      }
    },
    {
      "type": "Feature",
      "properties": {
        "norad_id": 58662,
        "name": "TIANMU-1 21",
        "group": "weather",
        "lat": -75.2806898145465,
        "lon": -112.73102668762121,
        "alt_km": 474.95108259010885,
        "timestamp": "2025-12-09T16:56:36.223577+00:00",
        "meta_object_name": "TIANMU-1 21",
        "meta_object_id": "2023-208C",
        "meta_epoch": "2025-12-09T12:41:12.234048",
        "meta_mean_motion": 15.31442036,
        "meta_eccentricity": 0.0005887,
        "meta_inclination": 97.4376,
        "meta_ra_of_asc_node": 96.9109,
        "meta_arg_of_pericenter": 273.6353,
        "meta_mean_anomaly": 86.4215,
        "meta_ephemeris_type": 0,
        "meta_classification_type": "U",
        "meta_norad_cat_id": 58662,
        "meta_element_set_no": 999,
        "meta_rev_at_epoch": 10850,
        "meta_bstar": 0.00052376,
        "meta_mean_motion_dot": 0.00015849,
        "meta_mean_motion_ddot": 0,
        "tle_line1": "1 58662U 23208C   25343.52861382  .00015849  00000+0  52376-3 0  9996",
        "tle_line2": "2 58662  97.4376  96.9109 0005887 273.6353  86.4215 15.31442036108505"
      },
      "geometry": {
        "type": "Point",
        "coordinates": [
          -112.73102668762121,
          -75.2806898145465
        ]
      }
    },
    {
      "type": "Feature",
      "properties": {
        "norad_id": 58663,
        "name": "TIANMU-1 22",
        "group": "weather",
        "lat": -42.06166183248216,
        "lon": -91.96069737443189,
        "alt_km": 489.565297743412,
        "timestamp": "2025-12-09T16:56:36.223587+00:00",
        "meta_object_name": "TIANMU-1 22",
        "meta_object_id": "2023-208D",
        "meta_epoch": "2025-12-09T11:15:21.039264",
        "meta_mean_motion": 15.27515971,
        "meta_eccentricity": 0.0002789,
        "meta_inclination": 97.4383,
        "meta_ra_of_asc_node": 94.5734,
        "meta_arg_of_pericenter": 303.2664,
        "meta_mean_anomaly": 56.8308,
        "meta_ephemeris_type": 0,
        "meta_classification_type": "U",
        "meta_norad_cat_id": 58663,
        "meta_element_set_no": 999,
        "meta_rev_at_epoch": 10833,
        "meta_bstar": 0.00046977,
        "meta_mean_motion_dot": 0.0001258,
        "meta_mean_motion_ddot": 0,
        "tle_line1": "1 58663U 23208D   25343.46899351  .00012580  00000+0  46977-3 0  9996",
        "tle_line2": "2 58663  97.4383  94.5734 0002789 303.2664  56.8308 15.27515971108334"
      },
      "geometry": {
        "type": "Point",
        "coordinates": [
          -91.96069737443189,
          -42.06166183248216
        ]
      }
    },
    {
      "type": "Feature",
      "properties": {
        "norad_id": 58700,
        "name": "TIANMU-1 15",
        "group": "weather",
        "lat": 23.380744793776955,
        "lon": 161.9377803869271,
        "alt_km": 490.4323767032083,
        "timestamp": "2025-12-09T16:56:36.223600+00:00",
        "meta_object_name": "TIANMU-1 15",
        "meta_object_id": "2024-004A",
        "meta_epoch": "2025-12-09T12:06:53.130240",
        "meta_mean_motion": 15.24613244,
        "meta_eccentricity": 0.0005335,
        "meta_inclination": 97.463,
        "meta_ra_of_asc_node": 164.9863,
        "meta_arg_of_pericenter": 312.2476,
        "meta_mean_anomaly": 47.8309,
        "meta_ephemeris_type": 0,
        "meta_classification_type": "U",
        "meta_norad_cat_id": 58700,
        "meta_element_set_no": 999,
        "meta_rev_at_epoch": 10685,
        "meta_bstar": 0.00041769,
        "meta_mean_motion_dot": 0.0001024,
        "meta_mean_motion_ddot": 0,
        "tle_line1": "1 58700U 24004A   25343.50478160  .00010240  00000+0  41769-3 0  9994",
        "tle_line2": "2 58700  97.4630 164.9863 0005335 312.2476  47.8309 15.24613244106852"
      },
      "geometry": {
        "type": "Point",
        "coordinates": [
          161.9377803869271,
          23.380744793776955
        ]
      }
    }
  ]
}